[{"OBJECT_NAME":"PIESAT D","OBJECT_ID":"2023-047D","EPOCH":"2026-03-09T13:45:37.058976","MEAN_MOTION":15.14301886,"ECCENTRICITY":0.0001784,"INCLINATION":97.5049,"RA_OF_ASC_NODE":257.1462,"ARG_OF_PERICENTER":95.5605,"MEAN_ANOMALY":264.5831,"EPHEMERIS_TYPE":0,"CLASSIFICATION_TYPE":"U","NORAD_CAT_ID":56156,"ELEMENT_SET_NO":999,"REV_AT_EPOCH":16272,"BSTAR":0.00028476,"MEAN_MOTION_DOT":5.148e-5,"MEAN_MOTION_DDOT":0},{"OBJECT_NAME":"STARLINK-5336","OBJECT_ID":"2023-090AP","EPOCH":"2026-03-09T22:00:01.999584","MEAN_MOTION":15.11535992,"ECCENTRICITY":0.00017643,"INCLINATION":43.0001,"RA_OF_ASC_NODE":260.5587,"ARG_OF_PERICENTER":295.7344,"MEAN_ANOMALY":137.865,"EPHEMERIS_TYPE":0,"CLASSIFICATION_TYPE":"U","NORAD_CAT_ID":57138,"ELEMENT_SET_NO":999,"REV_AT_EPOCH":577,"BSTAR":0.0061430475,"MEAN_MOTION_DOT":0.00107346,"MEAN_MOTION_DDOT":0}]
